NORAD_CAT_ID,OBJECT_NAME,OBJECT_TYPE,EPOCH,MEAN_MOTION,ECCENTRICITY,INCLINATION,RA_OF_ASC_NODE,ARG_OF_PERICENTER,MEAN_ANOMALY,BSTAR,MEAN_MOTION_DOT,MEAN_MOTION_DDOT,TLE_LINE0,TLE_LINE1,TLE_LINE2,SEMIMAJOR_AXIS,PERIOD,APOGEE,PERIGEE,DECAYED
53170.0,STARLINK-4095,PAYLOAD,2022-11-27 20:06:03,15.08839573,0.0002191,53.2171,136.4825,50.9281,309.1906,-2.8527e-05,-7.42e-06,0.0,0 STARLINK-4095,1 53170U 22083AQ  22331.83753877 -.00000742  00000-0 -28527-4 0  9993,2 53170  53.2171 136.4825 0002191  50.9281 309.1906 15.08839573 20597,6917.882,95.438,541.262,538.231,0.0
53170.0,STARLINK-4095,PAYLOAD,2022-11-28 11:59:54,15.08841404,0.0001973,53.2173,133.5087,49.0655,311.0508,1.7965e-05,-2e-08,0.0,0 STARLINK-4095,1 53170U 22083AQ  22332.49993424 -.00000002  00000-0  17965-4 0  9992,2 53170  53.2173 133.5087 0001973  49.0655 311.0508 15.08841404 21326,6917.876,95.437,541.106,538.376,0.0
53170.0,STARLINK-4095,PAYLOAD,2022-11-29 11:50:41,15.0884285,0.0002396,53.2176,129.0483,55.5162,304.6057,3.4801e-05,2.66e-06,0.0,0 STARLINK-4095,1 53170U 22083AQ  22333.49353253  .00000266  00000-0  34801-4 0  9992,2 53170  53.2176 129.0483 0002396  55.5162 304.6057 15.08842850 20843,6917.871999999999,95.437,541.394,538.0790000000002,0.0
53170.0,STARLINK-4095,PAYLOAD,2022-11-29 18:12:14,15.08835794,0.0002205,53.2176,127.8589,52.1655,307.9536,-2.3588e-05,-6.64e-06,0.0,0 STARLINK-4095,1 53170U 22083AQ  22333.75849865 -.00000664  00000-0 -23588-4 0  9994,2 53170  53.2176 127.8589 0002205  52.1655 307.9536 15.08835794 21517,6917.893,95.438,541.284,538.2330000000002,0.0
53170.0,STARLINK-4095,PAYLOAD,2022-11-30 10:06:05,15.08841177,0.0002093,53.2177,124.885,53.5342,306.5843,-7.439299999999997e-06,-4.07e-06,0.0,0 STARLINK-4095,1 53170U 22083AQ  22334.42089353 -.00000407  00000-0 -74393-5 0  9993,2 53170  53.2177 124.8850 0002093  53.5342 306.5843 15.08841177 21618,6917.877,95.437,541.19,538.294,0.0
53170.0,STARLINK-4095,PAYLOAD,2022-11-30 19:38:23,15.08848182,0.0002129,53.2177,123.1009,53.9734,306.1455,1.3723e-05,-7e-07,0.0,0 STARLINK-4095,1 53170U 22083AQ  22334.81832683 -.00000070  00000-0  13723-4 0  9992,2 53170  53.2177 123.1009 0002129  53.9734 306.1455 15.08848182 21040,6917.855,95.437,541.193,538.248,0.0
53170.0,STARLINK-4095,PAYLOAD,2022-12-01 09:56:52,15.08831192,0.0001961,53.2179,120.4245,52.25899999999999,307.858,-3.2857e-05,-8.11e-06,0.0,0 STARLINK-4095,1 53170U 22083AQ  22335.41449819 -.00000811  00000-0 -32857-4 0  9997,2 53170  53.2179 120.4245 0001961  52.2590 307.8580 15.08831192 21139,6917.906999999997,95.438,541.129,538.4159999999998,0.0
53170.0,STARLINK-4095,PAYLOAD,2022-12-01 16:18:24,15.08834854,0.0001982,53.2179,119.2358,47.8158,312.3002,-5.422899999999999e-06,-3.74e-06,0.0,0 STARLINK-4095,1 53170U 22083AQ  22335.67945568 -.00000374  00000-0 -54229-5 0  9999,2 53170  53.2179 119.2358 0001982  47.8158 312.3002 15.08834854 21805,6917.896,95.438,541.132,538.39,0.0
53170.0,STARLINK-4095,PAYLOAD,2022-12-01 19:29:11,15.08836016,0.0002257,53.2177,118.6416,52.2162,307.9034,1.623e-05,-3e-07,0.0,0 STARLINK-4095,1 53170U 22083AQ  22335.81193483 -.00000030  00000-0  16230-4 0  9993,2 53170  53.2177 118.6416 0002257  52.2162 307.9034 15.08836016 21191,6917.893,95.438,541.319,538.196,0.0
53170.0,STARLINK-4095,PAYLOAD,2022-12-02 17:44:35,15.08833991,0.0002165,53.2168,114.4773,50.0231,310.0951,-7.874e-05,-1.541e-05,0.0,0 STARLINK-4095,1 53170U 22083AQ  22336.73930123 -.00001541  00000-0 -78740-4 0  9998,2 53170  53.2168 114.4773 0002165  50.0231 310.0951 15.08833991 21969,6917.899,95.438,541.261,538.266,0.0
53170.0,STARLINK-4095,PAYLOAD,2022-12-02 19:19:58,15.08833576,0.0002129,53.2169,114.18,50.5065,309.6115,-7.7648e-05,-1.524e-05,0.0,0 STARLINK-4095,1 53170U 22083AQ  22336.80554156 -.00001524  00000-0 -77648-4 0  9991,2 53170  53.2169 114.1800 0002129  50.5065 309.6115 15.08833576 21345,6917.9,95.438,541.238,538.2919999999998,0.0
53170.0,STARLINK-4095,PAYLOAD,2022-12-03 12:49:13,15.08829685,0.0002137,53.2176,110.9094,49.5189,310.599,-4.676e-05,-1.032e-05,0.0,0 STARLINK-4095,1 53170U 22083AQ  22337.53418684 -.00001032  00000-0 -46760-4 0  9992,2 53170  53.2176 110.9094 0002137  49.5189 310.5990 15.08829685 21456,6917.9119999999975,95.438,541.255,538.299,0.0
53170.0,STARLINK-4095,PAYLOAD,2022-12-03 14:24:37,15.0882788,0.0002037,53.2186,110.6109,55.7334,304.3851,-5.7077e-05,-1.196e-05,0.0,0 STARLINK-4095,1 53170U 22083AQ  22337.60042849 -.00001196  00000-0 -57077-4 0  9990,2 53170  53.2186 110.6109 0002037  55.7334 304.3851 15.08827880 21464,6917.917,95.438,541.192,538.373,0.0
53170.0,STARLINK-4095,PAYLOAD,2022-12-04 01:32:19,15.08828762,0.0002169,53.2192,108.5298,50.7828,309.3357,-7.1712e-05,-1.429e-05,0.0,0 STARLINK-4095,1 53170U 22083AQ  22338.06411207 -.00001429  00000-0 -71712-4 0  9990,2 53170  53.2192 108.5298 0002169  50.7828 309.3357 15.08828762 22169,6917.915,95.438,541.28,538.279,0.0
53170.0,STARLINK-4095,PAYLOAD,2022-12-04 09:29:14,15.08839622,0.0001955,53.2185,107.0427,45.6641,314.4511,-9.7347e-05,-1.837e-05,0.0,0 STARLINK-4095,1 53170U 22083AQ  22338.39531032 -.00001837  00000-0 -97347-4 0  9990,2 53170  53.2185 107.0427 0001955  45.6641 314.4511 15.08839622 22219,6917.882,95.438,541.099,538.394,0.0
53170.0,STARLINK-4095,PAYLOAD,2022-12-04 19:01:33,15.08838306,0.0002098,53.2185,105.2597,46.00100000000001,314.1155,4.2723e-05,3.92e-06,0.0,0 STARLINK-4095,1 53170U 22083AQ  22338.79274552  .00000392  00000-0  42723-4 0  9996,2 53170  53.2185 105.2597 0002098  46.0010 314.1155 15.08838306 21646,6917.886,95.438,541.202,538.299,0.0
53170.0,STARLINK-4095,PAYLOAD,2022-12-05 01:23:05,15.08844196,0.0002111,53.2188,104.0703,46.6489,313.4679,8.586e-05,1.079e-05,0.0,0 STARLINK-4095,1 53170U 22083AQ  22339.05770010  .00001079  00000-0  85860-4 0  9998,2 53170  53.2188 104.0703 0002111  46.6489 313.4679 15.08844196 22319,6917.868,95.437,541.193,538.2719999999998,0.0
53170.0,STARLINK-4095,PAYLOAD,2022-12-05 09:20:01,15.08838748,0.0002048,53.2188,102.5835,47.7584,312.3581,0.00013807,1.91e-05,0.0,0 STARLINK-4095,1 53170U 22083AQ  22339.38890076  .00001910  00000-0  13807-3 0  9994,2 53170  53.2188 102.5835 0002048  47.7584 312.3581 15.08838748 21736,6917.884,95.438,541.1659999999998,538.332,0.0
53170.0,STARLINK-4095,PAYLOAD,2022-12-05 15:41:33,15.08837352,0.0002071,53.2188,101.3941,47.0479,313.0687,0.00011327,1.515e-05,0.0,0 STARLINK-4095,1 53170U 22083AQ  22339.65386272  .00001515  00000-0  11327-3 0  9998,2 53170  53.2188 101.3941 0002071  47.0479 313.0687 15.08837352 22403,6917.888000000001,95.438,541.186,538.321,0.0
53170.0,STARLINK-4095,PAYLOAD,2022-12-05 18:52:19,15.08839923,0.0002084,53.2187,100.7993,47.5375,312.5793,0.00012771,1.745e-05,0.0,0 STARLINK-4095,1 53170U 22083AQ  22339.78634058  .00001745  00000-0  12771-3 0  9999,2 53170  53.2187 100.7993 0002084  47.5375 312.5793 15.08839923 21795,6917.880999999999,95.438,541.187,538.304,0.0
53170.0,STARLINK-4095,PAYLOAD,2022-12-06 01:13:51,15.08845471,0.0002094,53.2183,99.61,45.5946,314.5217,0.00013089,1.796e-05,0.0,0 STARLINK-4095,1 53170U 22083AQ  22340.05129595  .00001796  00000-0  13089-3 0  9995,2 53170  53.2183  99.6100 0002094  45.5946 314.5217 15.08845471 22463,6917.864000000001,95.437,541.177,538.28,0.0
53170.0,STARLINK-4095,PAYLOAD,2022-12-06 07:35:24,15.0884539,0.0002157,53.2174,98.4215,47.305,312.8124,5.2292e-05,5.44e-06,0.0,0 STARLINK-4095,1 53170U 22083AQ  22340.31625834  .00000544  00000-0  52292-4 0  9991,2 53170  53.2174  98.4215 0002157  47.3050 312.8124 15.08845390 21875,6917.864000000001,95.437,541.221,538.237,0.0
53170.0,STARLINK-4095,PAYLOAD,2022-12-06 15:32:21,15.08834218,0.0002083,53.2187,96.9337,45.3238,314.7924,-7.073600000000001e-05,-1.414e-05,0.0,0 STARLINK-4095,1 53170U 22083AQ  22340.64746979 -.00001414  00000-0 -70736-4 0  9993,2 53170  53.2187  96.9337 0002083  45.3238 314.7924 15.08834218 22553,6917.898,95.438,541.2040000000002,538.322,0.0
53170.0,STARLINK-4095,PAYLOAD,2022-12-07 07:26:12,15.08840447,0.0002128,53.2191,93.9602,45.1084,315.008,-7.939e-05,-1.552e-05,0.0,0 STARLINK-4095,1 53170U 22083AQ  22341.30986604 -.00001552  00000-0 -79390-4 0  9996,2 53170  53.2191  93.9602 0002128  45.1084 315.0080 15.08840447 22656,6917.879,95.438,541.216,538.2719999999998,0.0
53170.0,STARLINK-4095,PAYLOAD,2022-12-07 13:47:44,15.08838403,0.0001933,53.2175,92.7694,41.1515,318.9622,-5.7117e-05,-1.197e-05,0.0,0 STARLINK-4095,1 53170U 22083AQ  22341.57482551 -.00001197  00000-0 -57117-4 0  9995,2 53170  53.2175  92.7694 0001933  41.1515 318.9622 15.08838403 22062,6917.885,95.438,541.087,538.413,0.0
53170.0,STARLINK-4095,PAYLOAD,2022-12-08 13:38:30,15.08853948,0.0002338,53.219,88.3145,41.4168,318.7001,2.8059e-06,-2.44e-06,0.0,0 STARLINK-4095,1 53170U 22083AQ  22342.56840956 -.00000244  00000-0  28059-5 0  9997,2 53170  53.2190  88.3145 0002338  41.4168 318.7001 15.08853948 22215,6917.8380000000025,95.437,541.32,538.085,0.0
53170.0,STARLINK-4095,PAYLOAD,2022-12-08 18:24:39,15.08858262,0.0002786,53.2172,87.42399999999998,36.8591,323.2592,-1.7859e-05,-5.73e-06,0.0,0 STARLINK-4095,1 53170U 22083AQ  22342.76712605 -.00000573  00000-0 -17859-4 0  9999,2 53170  53.2172  87.4240 0002786  36.8591 323.2592 15.08858262 22878,6917.825,95.436,541.617,537.762,0.0
53170.0,STARLINK-4095,PAYLOAD,2022-12-09 07:07:40,15.08909407,0.0002959,53.2189,85.0459,352.7453,7.3495,0.0005055,7.781e-05,0.0,0 STARLINK-4095,1 53170U 22083AQ  22343.29699583  .00007781  00000-0  50550-3 0  9997,2 53170  53.2189  85.0459 0002959 352.7453   7.3495 15.08909407 22321,6917.668000000002,95.433,541.58,537.486,0.0
53170.0,STARLINK-4095,PAYLOAD,2022-12-10 10:09:21,15.08831766,0.0001801,53.22,79.9898,51.2442,308.8711,-0.00051297,-8.441e-05,0.0,0 STARLINK-4095,1 53170U 22083AQ  22344.42316685 -.00008441  00000-0 -51297-3 0  9997,2 53170  53.2200  79.9898 0001801  51.2442 308.8711 15.08831766 23129,6917.906,95.438,541.016,538.525,0.0
